{
  "type": "FeatureCollection",
  "features": [
    {
      "type": "Feature",
      "properties": {
        "norad_id": 29268,
        "name": "ARIRANG-2 (KOMPSAT-2)",
        "group": "resource",
        "lat": 8.817776112226689,
        "lon": 179.54293192957732,
        "alt_km": 678.7904823883655,
        "timestamp": "2025-12-18T13:51:49.317172+00:00",
        "meta_object_name": "ARIRANG-2 (KOMPSAT-2)",
        "meta_object_id": "2006-031A",
        "meta_epoch": "2025-12-18T07:29:42.636192",
        "meta_mean_motion": 14.6449851,
        "meta_eccentricity": 0.00132622,
        "meta_inclination": 97.8256,
        "meta_ra_of_asc_node": 180.5131,
        "meta_arg_of_pericenter": 290.1072,
        "meta_mean_anomaly": 120.5996,
        "meta_ephemeris_type": 0,
        "meta_classification_type": "U",
        "meta_norad_cat_id": 29268,
        "meta_element_set_no": 999,
        "meta_rev_at_epoch": 3500,
        "meta_bstar": 6.426376e-05,
        "meta_mean_motion_dot": 2.96e-06,
        "meta_mean_motion_ddot": 0,
        "tle_line1": "1 29268U 06031A   25352.31229903  .00000296  00000+0  64264-4 0  9995",
        "tle_line2": "2 29268  97.8256 180.5131 0013262 290.1072 120.5996 14.64498510 35002"
      },
      "geometry": {
        "type": "Point",
        "coordinates": [
          179.54293192957732,
          8.817776112226689
        ]
      }
    },
    {
      "type": "Feature",
      "properties": {
        "norad_id": 29709,
        "name": "LAPAN-TUBSAT",
        "group": "resource",
        "lat": 27.601296292730275,
        "lon": -21.4289415093814,
        "alt_km": 602.0142631563476,
        "timestamp": "2025-12-18T13:51:49.317183+00:00",
        "meta_object_name": "LAPAN-TUBSAT",
        "meta_object_id": "2007-001A",
        "meta_epoch": "2025-12-18T05:39:24.151680",
        "meta_mean_motion": 14.85678524,
        "meta_eccentricity": 0.00135456,
        "meta_inclination": 98.1255,
        "meta_ra_of_asc_node": 342.5058,
        "meta_arg_of_pericenter": 57.6409,
        "meta_mean_anomaly": 302.6114,
        "meta_ephemeris_type": 0,
        "meta_classification_type": "U",
        "meta_norad_cat_id": 29709,
        "meta_element_set_no": 999,
        "meta_rev_at_epoch": 2428,
        "meta_bstar": 3.2480921e-05,
        "meta_mean_motion_dot": 2.24e-06,
        "meta_mean_motion_ddot": 0,
        "tle_line1": "1 29709U 07001A   25352.23569620  .00000224  00000+0  32481-4 0  9994",
        "tle_line2": "2 29709  98.1255 342.5058 0013545  57.6409 302.6114 14.85678524 24288"
      },
      "geometry": {
        "type": "Point",
        "coordinates": [
          -21.4289415093814,
          27.601296292730275
        ]
      }
    },
    {
      "type": "Feature",
      "properties": {
        "norad_id": 31113,
        "name": "HAIYANG-1B",
        "group": "resource",
        "lat": -24.998228598821377,
        "lon": 152.69666217824997,
        "alt_km": 804.0831290209544,
        "timestamp": "2025-12-18T13:51:49.317195+00:00",
        "meta_object_name": "HAIYANG-1B",
        "meta_object_id": "2007-010A",
        "meta_epoch": "2025-12-17T21:48:16.917696",
        "meta_mean_motion": 14.3096685,
        "meta_eccentricity": 0.00140197,
        "meta_inclination": 98.3317,
        "meta_ra_of_asc_node": 335.9732,
        "meta_arg_of_pericenter": 23.3851,
        "meta_mean_anomaly": 336.7967,
        "meta_ephemeris_type": 0,
        "meta_classification_type": "U",
        "meta_norad_cat_id": 31113,
        "meta_element_set_no": 999,
        "meta_rev_at_epoch": 97470,
        "meta_bstar": 5.3781568e-05,
        "meta_mean_motion_dot": 1e-06,
        "meta_mean_motion_ddot": 0,
        "tle_line1": "1 31113U 07010A   25351.90852914  .00000100  00000+0  53782-4 0  9990",
        "tle_line2": "2 31113  98.3317 335.9732 0014019  23.3851 336.7967 14.30966850974701"
      },
      "geometry": {
        "type": "Point",
        "coordinates": [
          152.69666217824997,
          -24.998228598821377
        ]
      }
    },
    {
      "type": "Feature",
      "properties": {
        "norad_id": 31598,
        "name": "COSMO-SKYMED 1",
        "group": "resource",
        "lat": -16.225298214531925,
        "lon": -4.296034891238027,
        "alt_km": 585.1211779729529,
        "timestamp": "2025-12-18T13:51:49.317207+00:00",
        "meta_object_name": "COSMO-SKYMED 1",
        "meta_object_id": "2007-023A",
        "meta_epoch": "2025-12-18T06:34:02.033760",
        "meta_mean_motion": 14.95808345,
        "meta_eccentricity": 0.00015698,
        "meta_inclination": 97.8835,
        "meta_ra_of_asc_node": 177.709,
        "meta_arg_of_pericenter": 87.1417,
        "meta_mean_anomaly": 272.9983,
        "meta_ephemeris_type": 0,
        "meta_classification_type": "U",
        "meta_norad_cat_id": 31598,
        "meta_element_set_no": 999,
        "meta_rev_at_epoch": 273,
        "meta_bstar": 0.00033191182,
        "meta_mean_motion_dot": 3.646e-05,
        "meta_mean_motion_ddot": 0,
        "tle_line1": "1 31598U 07023A   25352.27363465  .00003646  00000+0  33191-3 0  9999",
        "tle_line2": "2 31598  97.8835 177.7090 0001569  87.1417 272.9983 14.95808345  2737"
      },
      "geometry": {
        "type": "Point",
        "coordinates": [
          -4.296034891238027,
          -16.225298214531925
        ]
      }
    },
    {
      "type": "Feature",
      "properties": {
        "norad_id": 31698,
        "name": "TERRASAR-X",
        "group": "resource",
        "lat": -17.823235524902213,
        "lon": 0.2831607102224473,
        "alt_km": 513.8278691496207,
        "timestamp": "2025-12-18T13:51:49.317219+00:00",
        "meta_object_name": "TERRASAR-X",
        "meta_object_id": "2007-026A",
        "meta_epoch": "2025-12-17T14:13:48.329472",
        "meta_mean_motion": 15.19149756,
        "meta_eccentricity": 0.00018426,
        "meta_inclination": 97.4455,
        "meta_ra_of_asc_node": 356.9029,
        "meta_arg_of_pericenter": 91.3746,
        "meta_mean_anomaly": 268.77,
        "meta_ephemeris_type": 0,
        "meta_classification_type": "U",
        "meta_norad_cat_id": 31698,
        "meta_element_set_no": 999,
        "meta_rev_at_epoch": 2565,
        "meta_bstar": 4.5889707e-05,
        "meta_mean_motion_dot": 8.97e-06,
        "meta_mean_motion_ddot": 0,
        "tle_line1": "1 31698U 07026A   25351.59292048  .00000897  00000+0  45890-4 0  9990",
        "tle_line2": "2 31698  97.4455 356.9029 0001842  91.3746 268.7700 15.19149756 25658"
      },
      "geometry": {
        "type": "Point",
        "coordinates": [
          0.2831607102224473,
          -17.823235524902213
        ]
      }
    },
    {
      "type": "Feature",
      "properties": {
        "norad_id": 32060,
        "name": "WORLDVIEW-1 (WV-1)",
        "group": "resource",
        "lat": 76.95675866126345,
        "lon": -35.98225924212676,
        "alt_km": 483.6036509846208,
        "timestamp": "2025-12-18T13:51:49.317231+00:00",
        "meta_object_name": "WORLDVIEW-1 (WV-1)",
        "meta_object_id": "2007-041A",
        "meta_epoch": "2025-12-18T07:07:24.333888",
        "meta_mean_motion": 15.24779912,
        "meta_eccentricity": 9.076e-05,
        "meta_inclination": 97.3839,
        "meta_ra_of_asc_node": 109.6997,
        "meta_arg_of_pericenter": 117.1152,
        "meta_mean_anomaly": 243.0178,
        "meta_ephemeris_type": 0,
        "meta_classification_type": "U",
        "meta_norad_cat_id": 32060,
        "meta_element_set_no": 999,
        "meta_rev_at_epoch": 1532,
        "meta_bstar": 0.00030222175,
        "meta_mean_motion_dot": 7.422e-05,
        "meta_mean_motion_ddot": 0,
        "tle_line1": "1 32060U 07041A   25352.29680942  .00007422  00000+0  30222-3 0  9996",
        "tle_line2": "2 32060  97.3839 109.6997 0000907 117.1152 243.0178 15.24779912 15320"
      },
      "geometry": {
        "type": "Point",
        "coordinates": [
          -35.98225924212676,
          76.95675866126345
        ]
      }
    },
    {
      "type": "Feature",
      "properties": {
        "norad_id": 32289,
        "name": "YAOGAN-3",
        "group": "resource",
        "lat": -76.13981465001943,
        "lon": 53.081988002113185,
        "alt_km": 606.4269792459327,
        "timestamp": "2025-12-18T13:51:49.317243+00:00",
        "meta_object_name": "YAOGAN-3",
        "meta_object_id": "2007-055A",
        "meta_epoch": "2025-12-18T06:09:23.497344",
        "meta_mean_motion": 14.89886245,
        "meta_eccentricity": 0.00013223,
        "meta_inclination": 97.8366,
        "meta_ra_of_asc_node": 18.8328,
        "meta_arg_of_pericenter": 73.5619,
        "meta_mean_anomaly": 286.5744,
        "meta_ephemeris_type": 0,
        "meta_classification_type": "U",
        "meta_norad_cat_id": 32289,
        "meta_element_set_no": 999,
        "meta_rev_at_epoch": 97891,
        "meta_bstar": 0.00020419107,
        "meta_mean_motion_dot": 1.908e-05,
        "meta_mean_motion_ddot": 0,
        "tle_line1": "1 32289U 07055A   25352.25652196  .00001908  00000+0  20419-3 0  9990",
        "tle_line2": "2 32289  97.8366  18.8328 0001322  73.5619 286.5744 14.89886245978919"
      },
      "geometry": {
        "type": "Point",
        "coordinates": [
          53.081988002113185,
          -76.13981465001943
        ]
      }
    }
  ]
}